ONEWEB-0056             
1 45159U 20008AE  25300.47867894  .00000373  00000+0  10327-2 0  9994
2 45159  87.8767  82.6522 0001593  90.6838 269.4472 13.10374276277707
ONEWEB-0057             
1 45160U 20008AF  25300.40980406  .00000016  00000+0  10385-4 0  9994
2 45160  87.8765  82.6789 0001409  93.6355 266.4934 13.10369847277860
ONEWEB-0058             
1 45161U 20008AG  25300.47303108  .00000625  00000+0  17546-2 0  9990
2 45161  87.8767  82.6766 0001833 102.9198 257.2134 13.10372653277946
ONEWEB-0059             
1 45162U 20008AH  25300.39321466  .00000677  00000+0  19017-2 0  9991
2 45162  87.8767  82.6928 0001660  98.7582 261.3733 13.10378928277834
ONEWEB-0062             
1 45163U 20008AJ  25300.41891468 -.00000464  00000+0 -13653-2 0  9995
2 45163  87.8766  82.6649 0001952 100.0450 260.0897 13.10368934277708
ONEWEB-0065             
1 45164U 20008AK  25300.39901308  .00000518  00000+0  14463-2 0  9996
2 45164  87.8767  82.6951 0001424  82.8967 277.2322 13.10369332277391
ONEWEB-0066             
1 45424U 20020A   25300.36524596  .00000071  00000+0  16446-3 0  9994
2 45424  87.8843  67.4256 0001414 106.5666 253.5617 13.11413922272163
ONEWEB-0067             
1 45425U 20020B   25300.40267389 -.00000176  00000+0 -53339-3 0  9994
2 45425  87.8846  67.3211 0001446  99.3188 260.8104 13.11421853272221
